IRIDIUM 171             
1 43929U 19002H   24336.96660546  .00000687  00000+0  23818-3 0  9994
2 43929  86.4000 228.7285 0001846  84.0984 276.0422 14.34215164308378
IRIDIUM 170             
1 43930U 19002J   24336.80036539  .00003153  00000+0  49582-3 0  9995
2 43930  86.6124 228.5885 0002431  84.6621 275.4874 14.72266560316515
IRIDIUM 167             
1 43931U 19002K   24337.16956942  .00000082  00000+0  22376-4 0  9996
2 43931  86.3997 228.4179 0001799  74.0373 286.1021 14.34218278308402
IRIDIUM 181             
1 56726U 23068S   24336.78384241  .00001319  00000+0  38384-3 0  9992
2 56726  86.8604 290.4487 0001946  83.0987 277.0436 14.43591543 81310
IRIDIUM 177             
1 56727U 23068T   24337.08000460  .00004310  00000+0  56337-3 0  9997
2 56727  86.1995 235.6206 0002134  78.5470 281.5991 14.80252442 83213
IRIDIUM 174             
1 56728U 23068U   24336.87177157  .00004349  00000+0  56852-3 0  9996
2 56728  86.2002 235.8364 0002282  90.5038 269.6444 14.80248773 83187
IRIDIUM 178             
1 56729U 23068V   24336.73115250  .00004701  00000+0  61472-3 0  9994
2 56729  86.5782 261.2966 0002051  84.5966 275.5489 14.80253018 83165
IRIDIUM 179             
1 56730U 23068W   24336.86094328  .00004236  00000+0  55342-3 0  9994
2 56730  86.6786 267.4886 0002687  84.4123 275.7405 14.80272385 83180
